{"type": "FeatureCollection", "features": [ {"type": "Feature", "properties": {"norad_id": 66574, "name": "STARLINK-35812", "group": "last-30-days", "lat": 26.621087186631396, "lon": -141.1912306796868, "alt_km": 394.6541503264707, "timestamp": "2025-12-21T05:44:50.289129+00:00", "meta": {"OBJECT_NAME": "STARLINK-35812", "OBJECT_ID": "2025-268T", "EPOCH": "2025-12-20T22:00:01.999584", "MEAN_MOTION": 15.56368181, "ECCENTRICITY": 0.00017251, "INCLINATION": 43.0019, "RA_OF_ASC_NODE": 73.2509, "ARG_OF_PERICENTER": 267.7724, "MEAN_ANOMALY": 220.3809, "EPHEMERIS_TYPE": 0, "CLASSIFICATION_TYPE": "U", "NORAD_CAT_ID": 66574, "ELEMENT_SET_NO": 999, "REV_AT_EPOCH": 598, "BSTAR": 0.00045599532, "MEAN_MOTION_DOT": 0.00032796, "MEAN_MOTION_DDOT": 0}, "tle": {"line1": "1 66574U 25268T   25354.91668981  .00032796  00000+0  45600-3 0  9992", "line2": "2 66574  43.0019  73.2509 0001725 267.7724 220.3809 15.56368181  5983"}}, "geometry": {"type": "Point", "coordinates": [-141.1912306796868, 26.621087186631396]}}, {"type": "Feature", "properties": {"norad_id": 66575, "name": "STARLINK-35810", "group": "last-30-days", "lat": 25.507264591814305, "lon": -139.45518026756065, "alt_km": 394.72013001059076, "timestamp": "2025-12-21T05:44:50.289138+00:00", "meta": {"OBJECT_NAME": "STARLINK-35810", "OBJECT_ID": "2025-268U", "EPOCH": "2025-12-20T22:00:01.999584", "MEAN_MOTION": 15.56365225, "ECCENTRICITY": 0.00016839, "INCLINATION": 43.0025, "RA_OF_ASC_NODE": 73.2458, "ARG_OF_PERICENTER": 263.1198, "MEAN_ANOMALY": 226.9559, "EPHEMERIS_TYPE": 0, "CLASSIFICATION_TYPE": "U", "NORAD_CAT_ID": 66575, "ELEMENT_SET_NO": 999, "REV_AT_EPOCH": 598, "BSTAR": 0.0004662806, "MEAN_MOTION_DOT": 0.00033543, "MEAN_MOTION_DDOT": 0}, "tle": {"line1": "1 66575U 25268U   25354.91668981  .00033543  00000+0  46628-3 0  9995", "line2": "2 66575  43.0025  73.2458 0001683 263.1198 226.9559 15.56365225  5982"}}, "geometry": {"type": "Point", "coordinates": [-139.45518026756065, 25.507264591814305]}}, {"type": "Feature", "properties": {"norad_id": 66576, "name": "STARLINK-35814", "group": "last-30-days", "lat": 24.356305050259717, "lon": -137.72547501333023, "alt_km": 394.96538346499983, "timestamp": "2025-12-21T05:44:50.289149+00:00", "meta": {"OBJECT_NAME": "STARLINK-35814", "OBJECT_ID": "2025-268V", "EPOCH": "2025-12-20T22:00:01.999584", "MEAN_MOTION": 15.56472686, "ECCENTRICITY": 0.00016487, "INCLINATION": 43.0014, "RA_OF_ASC_NODE": 73.2437, "ARG_OF_PERICENTER": 266.0797, "MEAN_ANOMALY": 225.888, "EPHEMERIS_TYPE": 0, "CLASSIFICATION_TYPE": "U", "NORAD_CAT_ID": 66576, "ELEMENT_SET_NO": 999, "REV_AT_EPOCH": 598, "BSTAR": -0.0021870408, "MEAN_MOTION_DOT": -0.0015631, "MEAN_MOTION_DDOT": 0}, "tle": {"line1": "1 66576U 25268V   25354.91668981 -.00156310  00000+0 -21870-2 0  9997", "line2": "2 66576  43.0014  73.2437 0001648 266.0797 225.8880 15.56472686  5981"}}, "geometry": {"type": "Point", "coordinates": [-137.72547501333023, 24.356305050259717]}}, {"type": "Feature", "properties": {"norad_id": 66577, "name": "STARLINK-35815", "group": "last-30-days", "lat": 23.19656977081335, "lon": -136.0438316565919, "alt_km": 395.14545751214064, "timestamp": "2025-12-21T05:44:50.289159+00:00", "meta": {"OBJECT_NAME": "STARLINK-35815", "OBJECT_ID": "2025-268W", "EPOCH": "2025-12-20T22:00:01.999584", "MEAN_MOTION": 15.56482285, "ECCENTRICITY": 0.00016652, "INCLINATION": 43.0011, "RA_OF_ASC_NODE": 73.239, "ARG_OF_PERICENTER": 266.3892, "MEAN_ANOMALY": 227.5044, "EPHEMERIS_TYPE": 0, "CLASSIFICATION_TYPE": "U", "NORAD_CAT_ID": 66577, "ELEMENT_SET_NO": 999, "REV_AT_EPOCH": 598, "BSTAR": -0.0024803807, "MEAN_MOTION_DOT": -0.00176838, "MEAN_MOTION_DDOT": 0}, "tle": {"line1": "1 66577U 25268W   25354.91668981 -.00176838  00000+0 -24804-2 0  9995", "line2": "2 66577  43.0011  73.2390 0001665 266.3892 227.5044 15.56482285  5982"}}, "geometry": {"type": "Point", "coordinates": [-136.0438316565919, 23.19656977081335]}}, {"type": "Feature", "properties": {"norad_id": 66578, "name": "STARLINK-35743", "group": "last-30-days", "lat": 34.08547047141256, "lon": -155.18775221394577, "alt_km": 408.0290947016274, "timestamp": "2025-12-21T05:44:50.289182+00:00", "meta": {"OBJECT_NAME": "STARLINK-35743", "OBJECT_ID": "2025-268X", "EPOCH": "2025-12-19T13:01:43.293216", "MEAN_MOTION": 15.50763067, "ECCENTRICITY": 6.51e-05, "INCLINATION": 42.9979, "RA_OF_ASC_NODE": 81.316, "ARG_OF_PERICENTER": 284.5171, "MEAN_ANOMALY": 75.5617, "EPHEMERIS_TYPE": 0, "CLASSIFICATION_TYPE": "U", "NORAD_CAT_ID": 66578, "ELEMENT_SET_NO": 999, "REV_AT_EPOCH": 568, "BSTAR": 0.0024134, "MEAN_MOTION_DOT": 0.0014484, "MEAN_MOTION_DDOT": 0}, "tle": {"line1": "1 66578U 25268X   25353.54286219  .00144840  00000+0  24134-2 0  9996", "line2": "2 66578  42.9979  81.3160 0000651 284.5171  75.5617 15.50763067  5683"}}, "geometry": {"type": "Point", "coordinates": [-155.18775221394577, 34.08547047141256]}}, {"type": "Feature", "properties": {"norad_id": 66579, "name": "STARLINK-35868", "group": "last-30-days", "lat": 20.84179342552404, "lon": -132.78847434977357, "alt_km": 395.4860984170746, "timestamp": "2025-12-21T05:44:50.289194+00:00", "meta": {"OBJECT_NAME": "STARLINK-35868", "OBJECT_ID": "2025-268Y", "EPOCH": "2025-12-20T22:00:01.999584", "MEAN_MOTION": 15.56480793, "ECCENTRICITY": 0.00016632, "INCLINATION": 43.0008, "RA_OF_ASC_NODE": 73.2293, "ARG_OF_PERICENTER": 268.0976, "MEAN_ANOMALY": 229.6284, "EPHEMERIS_TYPE": 0, "CLASSIFICATION_TYPE": "U", "NORAD_CAT_ID": 66579, "ELEMENT_SET_NO": 999, "REV_AT_EPOCH": 598, "BSTAR": -0.0024433712, "MEAN_MOTION_DOT": -0.00174251, "MEAN_MOTION_DDOT": 0}, "tle": {"line1": "1 66579U 25268Y   25354.91668981 -.00174251  00000+0 -24434-2 0  9993", "line2": "2 66579  43.0008  73.2293 0001663 268.0976 229.6284 15.56480793  5983"}}, "geometry": {"type": "Point", "coordinates": [-132.78847434977357, 20.84179342552404]}}, {"type": "Feature", "properties": {"norad_id": 66580, "name": "STARLINK-35872", "group": "last-30-days", "lat": 31.790365743690362, "lon": -150.32303436094125, "alt_km": 406.39097792057055, "timestamp": "2025-12-21T05:44:50.289205+00:00", "meta": {"OBJECT_NAME": "STARLINK-35872", "OBJECT_ID": "2025-268Z", "EPOCH": "2025-12-19T14:33:26.953344", "MEAN_MOTION": 15.50873267, "ECCENTRICITY": 0.0002511, "INCLINATION": 42.9993, "RA_OF_ASC_NODE": 80.9317, "ARG_OF_PERICENTER": 162.1716, "MEAN_ANOMALY": 197.9233, "EPHEMERIS_TYPE": 0, "CLASSIFICATION_TYPE": "U", "NORAD_CAT_ID": 66580, "ELEMENT_SET_NO": 999, "REV_AT_EPOCH": 569, "BSTAR": 0.0027444, "MEAN_MOTION_DOT": 0.00165853, "MEAN_MOTION_DDOT": 0}, "tle": {"line1": "1 66580U 25268Z   25353.60656196  .00165853  00000+0  27444-2 0  9995", "line2": "2 66580  42.9993  80.9317 0002511 162.1716 197.9233 15.50873267  5692"}}, "geometry": {"type": "Point", "coordinates": [-150.32303436094125, 31.790365743690362]}}, {"type": "Feature", "properties": {"norad_id": 66581, "name": "STARLINK-35744", "group": "last-30-days", "lat": 18.422689833086466, "lon": -129.62796122877384, "alt_km": 395.77122950360626, "timestamp": "2025-12-21T05:44:50.289215+00:00", "meta": {"OBJECT_NAME": "STARLINK-35744", "OBJECT_ID": "2025-268AA", "EPOCH": "2025-12-20T22:00:01.999584", "MEAN_MOTION": 15.56482978, "ECCENTRICITY": 0.00016548, "INCLINATION": 43.0017, "RA_OF_ASC_NODE": 73.22, "ARG_OF_PERICENTER": 266.3833, "MEAN_ANOMALY": 235.1817, "EPHEMERIS_TYPE": 0, "CLASSIFICATION_TYPE": "U", "NORAD_CAT_ID": 66581, "ELEMENT_SET_NO": 999, "REV_AT_EPOCH": 593, "BSTAR": -0.0024942334, "MEAN_MOTION_DOT": -0.00177806, "MEAN_MOTION_DDOT": 0}, "tle": {"line1": "1 66581U 25268AA  25354.91668981 -.00177806  00000+0 -24942-2 0  9999", "line2": "2 66581  43.0017  73.2200 0001654 266.3833 235.1817 15.56482978  5933"}}, "geometry": {"type": "Point", "coordinates": [-129.62796122877384, 18.422689833086466]}}, {"type": "Feature", "properties": {"norad_id": 66582, "name": "STARLINK-35746", "group": "last-30-days", "lat": 17.192735129960802, "lon": -128.08217572347755, "alt_km": 396.15513903440115, "timestamp": "2025-12-21T05:44:50.289226+00:00", "meta": {"OBJECT_NAME": "STARLINK-35746", "OBJECT_ID": "2025-268AB", "EPOCH": "2025-12-20T22:00:01.999584", "MEAN_MOTION": 15.56487385, "ECCENTRICITY": 0.00018235, "INCLINATION": 43.0015, "RA_OF_ASC_NODE": 73.2147, "ARG_OF_PERICENTER": 275.3357, "MEAN_ANOMALY": 228.1486, "EPHEMERIS_TYPE": 0, "CLASSIFICATION_TYPE": "U", "NORAD_CAT_ID": 66582, "ELEMENT_SET_NO": 999, "REV_AT_EPOCH": 598, "BSTAR": -0.002624817, "MEAN_MOTION_DOT": -0.00186919, "MEAN_MOTION_DDOT": 0}, "tle": {"line1": "1 66582U 25268AB  25354.91668981 -.00186919  00000+0 -26248-2 0  9996", "line2": "2 66582  43.0015  73.2147 0001823 275.3357 228.1486 15.56487385  5987"}}, "geometry": {"type": "Point", "coordinates": [-128.08217572347755, 17.192735129960802]}}, {"type": "Feature", "properties": {"norad_id": 66583, "name": "STARLINK-35941", "group": "last-30-days", "lat": 28.030789503476644, "lon": -143.48774818699684, "alt_km": 402.73766671418343, "timestamp": "2025-12-21T05:44:50.289236+00:00", "meta": {"OBJECT_NAME": "STARLINK-35941", "OBJECT_ID": "2025-268AC", "EPOCH": "2025-12-20T05:59:10.873824", "MEAN_MOTION": 15.5129279, "ECCENTRICITY": 0.0012733, "INCLINATION": 43.0013, "RA_OF_ASC_NODE": 77.1533, "ARG_OF_PERICENTER": 76.6546, "MEAN_ANOMALY": 283.5733, "EPHEMERIS_TYPE": 0, "CLASSIFICATION_TYPE": "U", "NORAD_CAT_ID": 66583, "ELEMENT_SET_NO": 999, "REV_AT_EPOCH": 579, "BSTAR": 0.0016923, "MEAN_MOTION_DOT": 0.00103155, "MEAN_MOTION_DDOT": 0}, "tle": {"line1": "1 66583U 25268AC  25354.24943141  .00103155  00000+0  16923-2 0  9995", "line2": "2 66583  43.0013  77.1533 0012733  76.6546 283.5733 15.51292790  5790"}}, "geometry": {"type": "Point", "coordinates": [-143.48774818699684, 28.030789503476644]}}]}